{
    "links": {
        "self": "http://www.neowsapp.com/rest/v1/neo/3588017?api_key=iIulBulltgU6a56xZRHN4H3l9WmuAYTsLGpBGhQ2"
    },
    "id": "3588017",
    "neo_reference_id": "3588017",
    "name": "(2011 WQ2)",
    "designation": "2011 WQ2",
    "nasa_jpl_url": "http://ssd.jpl.nasa.gov/sbdb.cgi?sstr=3588017",
    "absolute_magnitude_h": 26.1,
    "estimated_diameter": {
        "kilometers": {
            "estimated_diameter_min": 0.0160160338,
            "estimated_diameter_max": 0.0358129403
        },
        "meters": {
            "estimated_diameter_min": 16.0160337979,
            "estimated_diameter_max": 35.8129403019
        },
        "miles": {
            "estimated_diameter_min": 0.0099518989,
            "estimated_diameter_max": 0.0222531225
        },
        "feet": {
            "estimated_diameter_min": 52.5460443254,
            "estimated_diameter_max": 117.4965270602
        }
    },
    "is_potentially_hazardous_asteroid": false,
    "close_approach_data": [
        {
            "close_approach_date": "2011-11-13",
            "close_approach_date_full": "2011-Nov-13 23:32",
            "epoch_date_close_approach": 1321227120000,
            "relative_velocity": {
                "kilometers_per_second": "9.1700355742",
                "kilometers_per_hour": "33012.1280671749",
                "miles_per_hour": "20512.4525759621"
            },
            "miss_distance": {
                "astronomical": "0.0195012437",
                "lunar": "7.5859837993",
                "kilometers": "2917344.519870919",
                "miles": "1812753.8261359222"
            },
            "orbiting_body": "Earth"
        }
    ],
    "orbital_data": {
        "orbit_id": "8",
        "orbit_determination_date": "2017-04-06 08:52:00",
        "first_observation_date": "2011-11-17",
        "last_observation_date": "2011-11-23",
        "data_arc_in_days": 6,
        "observations_used": 38,
        "orbit_uncertainty": "7",
        "minimum_orbit_intersection": ".00604311",
        "jupiter_tisserand_invariant": "3.285",
        "epoch_osculation": "2459000.5",
        "eccentricity": ".5885782576340007",
        "semi_major_axis": "2.369470724052896",
        "inclination": "3.853423752248265",
        "ascending_node_longitude": "52.88412954120556",
        "orbital_period": "1332.218461215914",
        "perihelion_distance": ".9748517737750682",
        "perihelion_argument": "337.5738385841508",
        "aphelion_distance": "3.764089674330724",
        "perihelion_time": "2458537.750940947116",
        "mean_anomaly": "125.0468043409279",
        "mean_motion": ".2702259505332396",
        "equinox": "J2000",
        "orbit_class": {
            "orbit_class_type": "APO",
            "orbit_class_description": "Near-Earth asteroid orbits which cross the Earth’s orbit similar to that of 1862 Apollo",
            "orbit_class_range": "a (semi-major axis) > 1.0 AU; q (perihelion) < 1.017 AU"
        }
    },
    "is_sentry_object": false
}